IRIDIUM 136             
1 42962U 17061H   24112.61350174  .00000886  00000+0  30921-3 0  9994
2 42962  86.4009 353.9710 0002466  88.1481 271.9997 14.34221200342099
